[
  {
    "id": "main-1",
    "name_ar": "دراجات",
    "name_en": "Bikes",
    "slug": "bikes",
    "parentId": null,
    "image": "/imgs/bike-(1).jpeg",
    "description_ar": "جميع أنواع الدراجات",
    "children": [
      {
        "id": "cat-1-1",
        "name_ar": "دراجات أطفال",
        "name_en": "Kids Bikes",
        "slug": "kids-bikes",
        "parentId": "main-1",
        "image": "/imgs/kids-car-1.jpeg"
      },
      {
        "id": "cat-1-2",
        "name_ar": "دراجات رجالي",
        "name_en": "Men Bikes",
        "slug": "men-bikes",
        "parentId": "main-1",
        "image": "/imgs/bike-(2).jpeg"
      },
      {
        "id": "cat-1-3",
        "name_ar": "دراجات بنات",
        "name_en": "Women Bikes",
        "slug": "women-bikes",
        "parentId": "main-1",
        "image": "/imgs/bike-(3).jpeg"
      },
      {
        "id": "cat-1-4",
        "name_ar": "دراجات BMX",
        "name_en": "BMX Bikes",
        "slug": "bmx-bikes",
        "parentId": "main-1",
        "image": "/imgs/bike-(4).jpeg"
      },
      {
        "id": "cat-1-5",
        "name_ar": "دراجات Mount",
        "name_en": "Mountain Bikes",
        "slug": "mountain-bikes",
        "parentId": "main-1",
        "image": "/imgs/bike-(5).jpeg"
      }
    ]
  },
  {
    "id": "main-2",
    "name_ar": "قسم الأطفال",
    "name_en": "Kids Section",
    "slug": "kids-section",
    "parentId": null,
    "image": "/imgs/kids-car-1.jpeg",
    "description_ar": "منتجات خاصة بالأطفال",
    "children": [
      {
        "id": "cat-2-1",
        "name_ar": "دراجات أطفال",
        "name_en": "Kids Bikes",
        "slug": "kids-bikes",
        "parentId": "main-2",
        "image": "/imgs/kids-car-1.jpeg"
      },
      {
        "id": "cat-2-2",
        "name_ar": "اسكوترات",
        "name_en": "Scooters",
        "slug": "scooters",
        "parentId": "main-2",
        "image": "/imgs/bike-(6).jpeg"
      },
      {
        "id": "cat-2-3",
        "name_ar": "عربيات أطفال",
        "name_en": "Kids Strollers",
        "slug": "kids-strollers",
        "parentId": "main-2",
        "image": "/imgs/bike-(7).jpeg"
      },
      {
        "id": "cat-2-4",
        "name_ar": "عربيات بيبي",
        "name_en": "Baby Strollers",
        "slug": "baby-strollers",
        "parentId": "main-2",
        "image": "/imgs/bike-(8).jpeg"
      }
    ]
  },
  {
    "id": "main-3",
    "name_ar": "الاكسسوارات وقطع الغيار",
    "name_en": "Accessories & Spare Parts",
    "slug": "accessories-parts",
    "parentId": null,
    "image": "/imgs/bike-(9).jpeg",
    "description_ar": "إكسسوارات وقطع غيار الدراجات",
    "children": [
      {
        "id": "cat-3-1",
        "name_ar": "مكابح",
        "name_en": "Brakes",
        "slug": "brakes",
        "parentId": "main-3",
        "image": "/imgs/bike-(12).jpeg"
      },
      {
        "id": "cat-3-2",
        "name_ar": "إطارات",
        "name_en": "Tires",
        "slug": "tires",
        "parentId": "main-3",
        "image": "/imgs/bike-(10).jpeg"
      },
      {
        "id": "cat-3-3",
        "name_ar": "عجلات",
        "name_en": "Wheels",
        "slug": "wheels",
        "parentId": "main-3",
        "image": "/imgs/bike-(11).jpeg"
      },
      {
        "id": "cat-3-4",
        "name_ar": "مقاعد",
        "name_en": "Saddles",
        "slug": "saddles",
        "parentId": "main-3",
        "image": "/imgs/bike-(1).jpeg"
      },
      {
        "id": "cat-3-5",
        "name_ar": "إكسسوارات أخرى",
        "name_en": "Other Accessories",
        "slug": "other-accessories",
        "parentId": "main-3",
        "image": "/imgs/bike-(2).jpeg"
      }
    ]
  }
]
